STARLINK-2298
1 28022C 21024AX  21325.11181843  .00007634  00000-0  51143-3 0  3255
2 28022  53.0519 177.7332 0001894  77.9891 137.6330 15.06396407    19
